IRIDIUM 166             
1 43570U 18061B   24139.72516196  .00000735  00000+0  25529-3 0  9991
2 43570  86.4001  14.1257 0001981  85.3592 274.7830 14.34219297304540
IRIDIUM 158             
1 43571U 18061C   24139.90274325  .00000019  00000+0 -37667-6 0  9992
2 43571  86.3992  14.0606 0002011  90.6873 269.4553 14.34213449304548
IRIDIUM 165             
1 43572U 18061D   24139.71881822 -.00000156  00000+0 -62796-4 0  9990
2 43572  86.4001  14.1697 0001912  89.0735 271.0679 14.34216447304538
IRIDIUM 155             
1 43573U 18061E   24139.89007412  .00000719  00000+0  24949-3 0  9995
2 43573  86.3998  14.0048 0001959  82.5489 277.5929 14.34218404304531
IRIDIUM 154             
1 43574U 18061F   24139.59196382  .00000175  00000+0  55463-4 0  9990
2 43574  86.4005  14.2256 0002387  85.2628 274.8840 14.34218702304539
IRIDIUM 163             
1 43575U 18061G   24139.71247033  .00000212  00000+0  68599-4 0  9991
2 43575  86.4002  14.1144 0002261  84.5585 275.5868 14.34218649304524
IRIDIUM 156             
1 43576U 18061H   24139.61733534  .00000764  00000+0  26581-3 0  9993
2 43576  86.4001  14.1605 0002122  87.7411 272.4028 14.34219380304500
IRIDIUM 164             
1 43577U 18061J   24139.38899631  .00000667  00000+0  23114-3 0  9990
2 43577  86.4002  14.2843 0002364  91.5424 268.6042 14.34221383304512
